{"type": "FeatureCollection", "features": [ {"type": "Feature", "properties": {"norad_id": 34014, "name": "COSMOS 2251 DEB", "group": "cosmos-2251-debris", "lat": 62.17152445218581, "lon": 72.3762501372545, "alt_km": 627.2266796737877, "timestamp": "2025-12-10T09:57:45.091293+00:00", "meta": {"OBJECT_NAME": "COSMOS 2251 DEB", "OBJECT_ID": "1993-036GZ", "EPOCH": "2025-12-09T07:55:50.935296", "MEAN_MOTION": 14.73067821, "ECCENTRICITY": 0.0036911, "INCLINATION": 74.0175, "RA_OF_ASC_NODE": 287.3752, "ARG_OF_PERICENTER": 67.9586, "MEAN_ANOMALY": 55.147, "EPHEMERIS_TYPE": 0, "CLASSIFICATION_TYPE": "U", "NORAD_CAT_ID": 34014, "ELEMENT_SET_NO": 999, "REV_AT_EPOCH": 89253, "BSTAR": 0.0014897, "MEAN_MOTION_DOT": 9.669e-05, "MEAN_MOTION_DDOT": 0}, "tle": {"line1": "1 34014U 93036GZ  25343.33045064  .00009669  00000+0  14897-2 0  9995", "line2": "2 34014  74.0175 287.3752 0036911  67.9586  55.1470 14.73067821892531"}}, "geometry": {"type": "Point", "coordinates": [72.3762501372545, 62.17152445218581]}}, {"type": "Feature", "properties": {"norad_id": 34015, "name": "COSMOS 2251 DEB", "group": "cosmos-2251-debris", "lat": -22.15396665880759, "lon": 157.16677360603205, "alt_km": 693.9420015046089, "timestamp": "2025-12-10T09:57:45.091305+00:00", "meta": {"OBJECT_NAME": "COSMOS 2251 DEB", "OBJECT_ID": "1993-036HA", "EPOCH": "2025-12-09T21:13:16.155264", "MEAN_MOTION": 14.60187383, "ECCENTRICITY": 0.0021057, "INCLINATION": 74.0236, "RA_OF_ASC_NODE": 164.879, "ARG_OF_PERICENTER": 262.0693, "MEAN_ANOMALY": 165.1297, "EPHEMERIS_TYPE": 0, "CLASSIFICATION_TYPE": "U", "NORAD_CAT_ID": 34015, "ELEMENT_SET_NO": 999, "REV_AT_EPOCH": 88489, "BSTAR": 0.0022237, "MEAN_MOTION_DOT": 0.00010735, "MEAN_MOTION_DDOT": 0}, "tle": {"line1": "1 34015U 93036HA  25343.88421476  .00010735  00000+0  22237-2 0  9994", "line2": "2 34015  74.0236 164.8790 0021057 262.0693 165.1297 14.60187383884894"}}, "geometry": {"type": "Point", "coordinates": [157.16677360603205, -22.15396665880759]}}, {"type": "Feature", "properties": {"norad_id": 34018, "name": "COSMOS 2251 DEB", "group": "cosmos-2251-debris", "lat": 54.46413870112843, "lon": 119.92390531620644, "alt_km": 897.7997309870088, "timestamp": "2025-12-10T09:57:45.091315+00:00", "meta": {"OBJECT_NAME": "COSMOS 2251 DEB", "OBJECT_ID": "1993-036HD", "EPOCH": "2025-12-09T18:47:47.056128", "MEAN_MOTION": 13.81065911, "ECCENTRICITY": 0.0263929, "INCLINATION": 73.8774, "RA_OF_ASC_NODE": 97.1056, "ARG_OF_PERICENTER": 133.5502, "MEAN_ANOMALY": 26.6741, "EPHEMERIS_TYPE": 0, "CLASSIFICATION_TYPE": "U", "NORAD_CAT_ID": 34018, "ELEMENT_SET_NO": 999, "REV_AT_EPOCH": 84616, "BSTAR": 0.00091424, "MEAN_MOTION_DOT": 1.237e-05, "MEAN_MOTION_DDOT": 0}, "tle": {"line1": "1 34018U 93036HD  25343.78318352  .00001237  00000+0  91424-3 0  9996", "line2": "2 34018  73.8774  97.1056 0263929 133.5502  26.6741 13.81065911846168"}}, "geometry": {"type": "Point", "coordinates": [119.92390531620644, 54.46413870112843]}}, {"type": "Feature", "properties": {"norad_id": 34019, "name": "COSMOS 2251 DEB", "group": "cosmos-2251-debris", "lat": 69.12872886020517, "lon": -173.99056858335427, "alt_km": 802.1006969232867, "timestamp": "2025-12-10T09:57:45.091325+00:00", "meta": {"OBJECT_NAME": "COSMOS 2251 DEB", "OBJECT_ID": "1993-036HE", "EPOCH": "2025-12-10T04:36:47.176416", "MEAN_MOTION": 14.33917292, "ECCENTRICITY": 0.006272, "INCLINATION": 73.9547, "RA_OF_ASC_NODE": 55.4248, "ARG_OF_PERICENTER": 237.0211, "MEAN_ANOMALY": 156.8612, "EPHEMERIS_TYPE": 0, "CLASSIFICATION_TYPE": "U", "NORAD_CAT_ID": 34019, "ELEMENT_SET_NO": 999, "REV_AT_EPOCH": 87484, "BSTAR": 0.0012974, "MEAN_MOTION_DOT": 3.672e-05, "MEAN_MOTION_DDOT": 0}, "tle": {"line1": "1 34019U 93036HE  25344.19221269  .00003672  00000+0  12974-2 0  9990", "line2": "2 34019  73.9547  55.4248 0062720 237.0211 156.8612 14.33917292874846"}}, "geometry": {"type": "Point", "coordinates": [-173.99056858335427, 69.12872886020517]}}, {"type": "Feature", "properties": {"norad_id": 34021, "name": "COSMOS 2251 DEB", "group": "cosmos-2251-debris", "lat": 64.1754099402971, "lon": 170.45720187562975, "alt_km": 732.2133057514466, "timestamp": "2025-12-10T09:57:45.091335+00:00", "meta": {"OBJECT_NAME": "COSMOS 2251 DEB", "OBJECT_ID": "1993-036HG", "EPOCH": "2025-12-09T21:05:37.926816", "MEAN_MOTION": 14.4993166, "ECCENTRICITY": 0.0020861, "INCLINATION": 74.0357, "RA_OF_ASC_NODE": 135.1996, "ARG_OF_PERICENTER": 279.5274, "MEAN_ANOMALY": 232.1664, "EPHEMERIS_TYPE": 0, "CLASSIFICATION_TYPE": "U", "NORAD_CAT_ID": 34021, "ELEMENT_SET_NO": 999, "REV_AT_EPOCH": 88588, "BSTAR": 0.0008602, "MEAN_MOTION_DOT": 3.309e-05, "MEAN_MOTION_DDOT": 0}, "tle": {"line1": "1 34021U 93036HG  25343.87891119  .00003309  00000+0  86020-3 0  9995", "line2": "2 34021  74.0357 135.1996 0020861 279.5274 232.1664 14.49931660885889"}}, "geometry": {"type": "Point", "coordinates": [170.45720187562975, 64.1754099402971]}}, {"type": "Feature", "properties": {"norad_id": 34022, "name": "COSMOS 2251 DEB", "group": "cosmos-2251-debris", "lat": -21.767589135929477, "lon": -91.47738821298314, "alt_km": 750.7720127257362, "timestamp": "2025-12-10T09:57:45.091346+00:00", "meta": {"OBJECT_NAME": "COSMOS 2251 DEB", "OBJECT_ID": "1993-036HH", "EPOCH": "2025-12-10T03:40:59.279232", "MEAN_MOTION": 14.38956777, "ECCENTRICITY": 0.0022632, "INCLINATION": 74.0542, "RA_OF_ASC_NODE": 275.5601, "ARG_OF_PERICENTER": 340.9579, "MEAN_ANOMALY": 81.6599, "EPHEMERIS_TYPE": 0, "CLASSIFICATION_TYPE": "U", "NORAD_CAT_ID": 34022, "ELEMENT_SET_NO": 999, "REV_AT_EPOCH": 88158, "BSTAR": 0.00038754, "MEAN_MOTION_DOT": 1.172e-05, "MEAN_MOTION_DDOT": 0}, "tle": {"line1": "1 34022U 93036HH  25344.15346388  .00001172  00000+0  38754-3 0  9998", "line2": "2 34022  74.0542 275.5601 0022632 340.9579  81.6599 14.38956777881588"}}, "geometry": {"type": "Point", "coordinates": [-91.47738821298314, -21.767589135929477]}}, {"type": "Feature", "properties": {"norad_id": 34023, "name": "COSMOS 2251 DEB", "group": "cosmos-2251-debris", "lat": -59.219976319967046, "lon": 104.7893503581669, "alt_km": 767.6551200157037, "timestamp": "2025-12-10T09:57:45.091356+00:00", "meta": {"OBJECT_NAME": "COSMOS 2251 DEB", "OBJECT_ID": "1993-036HJ", "EPOCH": "2025-12-10T04:35:25.587168", "MEAN_MOTION": 14.4055235, "ECCENTRICITY": 0.00184, "INCLINATION": 74.0257, "RA_OF_ASC_NODE": 256.4593, "ARG_OF_PERICENTER": 352.5632, "MEAN_ANOMALY": 170.5735, "EPHEMERIS_TYPE": 0, "CLASSIFICATION_TYPE": "U", "NORAD_CAT_ID": 34023, "ELEMENT_SET_NO": 999, "REV_AT_EPOCH": 88177, "BSTAR": 0.00051649, "MEAN_MOTION_DOT": 1.622e-05, "MEAN_MOTION_DDOT": 0}, "tle": {"line1": "1 34023U 93036HJ  25344.19126837  .00001622  00000+0  51649-3 0  9996", "line2": "2 34023  74.0257 256.4593 0018400 352.5632 170.5735 14.40552350881770"}}, "geometry": {"type": "Point", "coordinates": [104.7893503581669, -59.219976319967046]}}, {"type": "Feature", "properties": {"norad_id": 34024, "name": "COSMOS 2251 DEB", "group": "cosmos-2251-debris", "lat": -59.911805946941136, "lon": -69.32990776992631, "alt_km": 776.8184831930348, "timestamp": "2025-12-10T09:57:45.091366+00:00", "meta": {"OBJECT_NAME": "COSMOS 2251 DEB", "OBJECT_ID": "1993-036HK", "EPOCH": "2025-12-09T22:42:20.582784", "MEAN_MOTION": 14.35391073, "ECCENTRICITY": 0.002091, "INCLINATION": 74.0463, "RA_OF_ASC_NODE": 321.1139, "ARG_OF_PERICENTER": 12.5485, "MEAN_ANOMALY": 20.8715, "EPHEMERIS_TYPE": 0, "CLASSIFICATION_TYPE": "U", "NORAD_CAT_ID": 34024, "ELEMENT_SET_NO": 999, "REV_AT_EPOCH": 87984, "BSTAR": 0.00030562, "MEAN_MOTION_DOT": 8.53e-06, "MEAN_MOTION_DDOT": 0}, "tle": {"line1": "1 34024U 93036HK  25343.94607156  .00000853  00000+0  30562-3 0  9993", "line2": "2 34024  74.0463 321.1139 0020910  12.5485  20.8715 14.35391073879841"}}, "geometry": {"type": "Point", "coordinates": [-69.32990776992631, -59.911805946941136]}}, {"type": "Feature", "properties": {"norad_id": 34026, "name": "COSMOS 2251 DEB", "group": "cosmos-2251-debris", "lat": 44.972355827462046, "lon": -1.9289467338482913, "alt_km": 1260.9291081122692, "timestamp": "2025-12-10T09:57:45.091376+00:00", "meta": {"OBJECT_NAME": "COSMOS 2251 DEB", "OBJECT_ID": "1993-036HM", "EPOCH": "2025-12-10T01:13:36.216768", "MEAN_MOTION": 13.65302372, "ECCENTRICITY": 0.0350778, "INCLINATION": 73.768, "RA_OF_ASC_NODE": 341.7565, "ARG_OF_PERICENTER": 212.1728, "MEAN_ANOMALY": 208.0433, "EPHEMERIS_TYPE": 0, "CLASSIFICATION_TYPE": "U", "NORAD_CAT_ID": 34026, "ELEMENT_SET_NO": 999, "REV_AT_EPOCH": 83495, "BSTAR": 0.0011091, "MEAN_MOTION_DOT": 1.349e-05, "MEAN_MOTION_DDOT": 0}, "tle": {"line1": "1 34026U 93036HM  25344.05111362  .00001349  00000+0  11091-2 0  9993", "line2": "2 34026  73.7680 341.7565 0350778 212.1728 208.0433 13.65302372834953"}}, "geometry": {"type": "Point", "coordinates": [-1.9289467338482913, 44.972355827462046]}}, {"type": "Feature", "properties": {"norad_id": 34028, "name": "COSMOS 2251 DEB", "group": "cosmos-2251-debris", "lat": 66.95101625221243, "lon": 33.619583090781816, "alt_km": 929.0628683445648, "timestamp": "2025-12-10T09:57:45.091387+00:00", "meta": {"OBJECT_NAME": "COSMOS 2251 DEB", "OBJECT_ID": "1993-036HP", "EPOCH": "2025-12-10T02:39:16.240032", "MEAN_MOTION": 13.20620004, "ECCENTRICITY": 0.0543781, "INCLINATION": 73.8833, "RA_OF_ASC_NODE": 351.2812, "ARG_OF_PERICENTER": 129.5756, "MEAN_ANOMALY": 301.6435, "EPHEMERIS_TYPE": 0, "CLASSIFICATION_TYPE": "U", "NORAD_CAT_ID": 34028, "ELEMENT_SET_NO": 999, "REV_AT_EPOCH": 80973, "BSTAR": 0.00044984, "MEAN_MOTION_DOT": 3.8e-06, "MEAN_MOTION_DDOT": 0}, "tle": {"line1": "1 34028U 93036HP  25344.11060463  .00000380  00000+0  44984-3 0  9999", "line2": "2 34028  73.8833 351.2812 0543781 129.5756 301.6435 13.20620004809733"}}, "geometry": {"type": "Point", "coordinates": [33.619583090781816, 66.95101625221243]}}]}